RADARSAT-2              
1 32382U 07061A   26192.94744351 -.00000149  00000+0 -40833-4 0  9996
2 32382  98.5785 199.5259 0001322  85.4158 274.7176 14.29982215969495
