{"fetched_at":"2026-07-12T07:15:54.666Z","source":"https://celestrak.org/NORAD/elements/gp.php?NAME=RADARSAT&FORMAT=JSON","constellation":"radarsat-2","records":[{"OBJECT_NAME":"RADARSAT-2","OBJECT_ID":"2007-061A","EPOCH":"2026-07-11T22:44:19.119264","CLASSIFICATION_TYPE":"U","MEAN_MOTION":14.29982215,"ECCENTRICITY":0.00013221,"INCLINATION":98.5785,"RA_OF_ASC_NODE":199.5259,"ARG_OF_PERICENTER":85.4158,"MEAN_ANOMALY":274.7176,"EPHEMERIS_TYPE":0,"NORAD_CAT_ID":32382,"ELEMENT_SET_NO":999,"REV_AT_EPOCH":96949,"BSTAR":-0.000040832829,"MEAN_MOTION_DOT":-0.00000149,"MEAN_MOTION_DDOT":0}]}
